{"type":"FeatureCollection", "features": [
{"type":"Feature","geometry":{"type":"Polygon","coordinates":[[[-83.15752,14.993066],[-84.645947,14.661084],[-84.985156,14.752441],[-85.179492,14.343311],[-85.786719,13.844434],[-86.151221,13.99458],[-86.733643,13.763477],[-86.710693,13.313379],[-87.337256,12.979248],[-87.667529,12.903564],[-86.755615,12.156641],[-86.468896,11.738281],[-85.744336,11.062109],[-84.348291,10.979883],[-84.168359,10.780371],[-83.641992,10.917236],[-83.867871,11.300049],[-83.769336,11.931641],[-83.510937,12.411816],[-83.567334,13.320312],[-83.187744,14.340088],[-83.15752,14.993066]]]},"properties":{"iso2":"NI"}},
{"type":"Feature","geometry":{"type":"Polygon","coordinates":[[[-89.161475,17.814844],[-90.98916,17.816406],[-90.992969,17.252441],[-90.416992,16.391016],[-90.447168,16.072705],[-91.736572,16.070166],[-92.187158,15.320898],[-92.235156,14.54541],[-91.146045,13.925586],[-90.606934,13.929004],[-90.095215,13.736523],[-89.362598,14.416016],[-89.222363,14.866064],[-88.22832,15.729004],[-88.894043,15.890625],[-89.2375,15.894434],[-89.161475,17.814844]]]},"properties":{"iso2":"GT"}},
{"type":"Feature","geometry":{"type":"Polygon","coordinates":[[[-89.362598,14.416016],[-90.095215,13.736523],[-88.512012,13.183936],[-87.930859,13.180664],[-87.814209,13.39917],[-87.715332,13.812695],[-88.512549,13.978955],[-89.362598,14.416016]]]},"properties":{"iso2":"SV"}},
{"type":"Feature","geometry":{"type":"Polygon","coordinates":[[[-83.15752,14.993066],[-83.760449,15.220361],[-84.261426,15.822607],[-84.97373,15.989893],[-85.783984,16.002832],[-86.356641,15.783203],[-87.618164,15.909863],[-88.22832,15.729004],[-89.222363,14.866064],[-89.362598,14.416016],[-88.512549,13.978955],[-87.715332,13.812695],[-87.814209,13.39917],[-87.337256,12.979248],[-86.710693,13.313379],[-86.733643,13.763477],[-86.151221,13.99458],[-85.786719,13.844434],[-85.179492,14.343311],[-84.985156,14.752441],[-84.645947,14.661084],[-83.15752,14.993066]]]},"properties":{"iso2":"HN"}},
{"type":"Feature","geometry":{"type":"Polygon","coordinates":[[[-82.563574,9.57666],[-82.778418,9.669531],[-83.448242,10.465918],[-83.641992,10.917236],[-84.168359,10.780371],[-84.348291,10.979883],[-85.744336,11.062109],[-85.830615,10.398145],[-85.624854,9.902441],[-85.114502,9.581787],[-84.658887,9.64668],[-83.637256,9.035352],[-83.734082,8.614453],[-83.162402,8.588184],[-82.879346,8.070654],[-82.939844,9.44917],[-82.563574,9.57666]]]},"properties":{"iso2":"CR"}},
{"type":"Feature","geometry":{"type":"Polygon","coordinates":[[[-82.879346,8.070654],[-82.679541,8.321973],[-81.727637,8.137549],[-81.50415,7.721191],[-81.035107,7.711133],[-80.845557,7.220068],[-80.438867,7.274951],[-80.075195,7.667041],[-80.368701,8.28877],[-79.750439,8.595508],[-79.441504,9.006006],[-79.086377,8.997168],[-78.113867,8.37959],[-78.421582,8.060986],[-78.170117,7.543799],[-77.350781,7.705859],[-77.212305,8.033887],[-77.374219,8.658301],[-78.082764,9.236279],[-78.504346,9.406299],[-79.577295,9.597852],[-80.1271,9.209912],[-81.354785,8.780566],[-82.244189,9.031494],[-82.563574,9.57666],[-82.939844,9.44917],[-82.879346,8.070654]]]},"properties":{"iso2":"PA"}},
{"type":"Feature","geometry":{"type":"Polygon","coordinates":[[[-89.161475,17.814844],[-89.2375,15.894434],[-88.894043,15.890625],[-88.313428,16.632764],[-88.271729,17.609863],[-88.130273,18.350732],[-88.522998,18.445898],[-88.806348,17.965527],[-89.161475,17.814844]]]},"properties":{"iso2":"BZ"}}
]}