{"type":"FeatureCollection", "features": [
{"type":"Feature","geometry":{"type":"MultiPolygon","coordinates":[[[[-82.265725,9.21327212681196],[-82.2368224,9.2527961],[-82.2626397,9.2946275],[-82.2907038,9.2827843],[-82.2954261,9.2381563],[-82.265725,9.21327212681196]]],[[[-82.1687834997132,9.304792173995176],[-82.1334561,9.2711051],[-82.1227218,9.3159076],[-82.1687834997132,9.304792173995176]]],[[[-82.2656783,9.3524631],[-82.2350518,9.3822949],[-82.2596201,9.4335001],[-82.324383,9.4279746],[-82.3291043,9.4054016],[-82.2656783,9.3524631]]],[[[-82.1265097,9.1405708],[-82.1006279,9.1334625],[-82.0979959,9.196216],[-82.1170814,9.2313782],[-82.1476679,9.2172948],[-82.1607885,9.1620575],[-82.1265097,9.1405708]]],[[[-82.359103,8.82376],[-82.3357257,8.9062681],[-82.3746536,8.9652547],[-82.4135814,8.9985567],[-82.3692432,9.0215601],[-82.3566412,9.0555085],[-82.3602258,9.1102362],[-82.327566,9.145479],[-82.3102134,9.1056107],[-82.2738588,9.0791597],[-82.3224856,9.0259911],[-82.2688443,9.006116],[-82.1985763,8.9576945],[-82.1927041,8.9018355],[-82.0985515,8.9043777],[-82.1307,8.9684699],[-82.1875149,8.9997078],[-82.2434824,8.9977158],[-82.25138,9.0852199],[-82.2792001,9.1066401],[-82.2546418,9.153673],[-82.2124766,9.1702549],[-82.20319,9.2118001],[-82.2619863,9.1819317],[-82.2914429,9.2117107],[-82.3128131,9.1879228],[-82.3554888,9.2068672],[-82.3733799,9.25345],[-82.3479001,9.30691],[-82.3890857,9.3420431],[-82.3545533,9.3858844],[-82.3509494,9.4162974],[-82.3880499,9.4202601],[-82.5633627,9.5718475],[-82.599976,9.5594606],[-82.6026485,9.5108143],[-82.6390562,9.4936437],[-82.6763207,9.5080871],[-82.7396167,9.5779497],[-82.8066046,9.5956593],[-82.854201,9.6215906],[-82.8848945,9.5651419],[-82.8723297,9.524588],[-82.8425801,9.5014132],[-82.9360778,9.4731248],[-82.9359299,9.0784693],[-82.8871185,9.0879039],[-82.8739414,9.0573935],[-82.8246982,9.0341769],[-82.801389,9.003611],[-82.7555787,8.9954389],[-82.7168872,8.9493839],[-82.7118974,8.9222593],[-82.6928077,8.9013328],[-82.5935964,8.9130508],[-82.4118971,8.8299394],[-82.359103,8.82376]]]]},"properties":{"code":"01"}},
{"type":"Feature","geometry":{"type":"Polygon","coordinates":[[[-79.2343436,9.3285045],[-79.1524177,9.391732],[-79.1337613,9.4253419],[-79.0802255,9.4741505],[-79.09474799564322,9.55789354536354],[-79.13833,9.5585],[-79.1594601,9.5381201],[-79.2287301,9.5439001],[-79.3259001,9.57968],[-79.35656,9.5740301],[-79.4568647,9.5991791],[-79.49307,9.5863701],[-79.53095,9.59401],[-79.5511453,9.6306112],[-79.5874947,9.6038996],[-79.6204399,9.6159],[-79.6777701,9.56277],[-79.691153,9.5021063],[-79.7243781,9.4840578],[-79.7442908,9.4473653],[-79.7768725,9.442961],[-79.8487296,9.3974433],[-79.8737219,9.4046963],[-79.9164721,9.3113967],[-79.9446487,9.3131145],[-79.9488065,9.3724996],[-79.9802688,9.3608785],[-80.0062421,9.3157431],[-80.0663257,9.2639036],[-80.0878076,9.23075],[-80.17746,9.19276],[-80.23818,9.1833601],[-80.29375,9.15563],[-80.4948299,9.11705],[-80.6948322,9.0202408],[-80.7068301,9.0004999],[-80.7592199,8.97528],[-80.8235601,8.89437],[-80.88374208378232,8.887134817309459],[-80.864248,8.8254612],[-80.8382913,8.8318735],[-80.8172015,8.8014141],[-80.7896224,8.8078268],[-80.7344644,8.7404878],[-80.7490651,8.7180388],[-80.7312198,8.6266252],[-80.6821674,8.648071],[-80.7010952,8.7195122],[-80.6953595,8.7472911],[-80.6489005,8.7869718],[-80.552541,8.7682657],[-80.5588503,8.9229873],[-80.4607702,8.9065548],[-80.4395481,8.8810546],[-80.3540865,8.8657536],[-80.2995975,8.9014549],[-80.2709191,8.9365861],[-80.2387993,8.9377193],[-80.2066795,8.9677481],[-80.206106,9.0062719],[-80.1424399,8.9439519],[-80.1040109,8.9819117],[-80.0604197,8.9649153],[-79.9858559,8.9609493],[-79.9652074,8.9756798],[-79.9520153,9.036295],[-79.9675017,9.0804753],[-79.940544,9.1189871],[-79.9388233,9.1637235],[-79.901107,9.1860007],[-79.8208033,9.1723878],[-79.7948466,9.0995098],[-79.7315771,9.1011116],[-79.6981024,9.1151896],[-79.6723633,9.1555711],[-79.6115272,9.2004139],[-79.571781,9.2012146],[-79.5863817,9.2732712],[-79.5344682,9.4101378],[-79.5271679,9.4669496],[-79.4346971,9.4805511],[-79.4087403,9.4581484],[-79.4054957,9.4197405],[-79.3389816,9.3989344],[-79.3235698,9.4253419],[-79.2911239,9.4197405],[-79.2465108,9.3621206],[-79.2343436,9.3285045]]]},"properties":{"code":"03"}},
{"type":"Feature","geometry":{"type":"Polygon","coordinates":[[[-78.39879148880269,8.346730699084572],[-78.3672241,8.3942388],[-78.3689714,8.4218265],[-78.3337024,8.4619567],[-78.3042848,8.4420137],[-78.2594341,8.4799088],[-78.2222052,8.4885298],[-78.2100609,8.4516675],[-78.2664544,8.4101305],[-78.2471858,8.3836362],[-78.1884372,8.4097815],[-78.1895143,8.4439911],[-78.1415528,8.4646715],[-78.1080208,8.4148476],[-78.0784747,8.405217],[-78.0506741,8.3362978],[-78.1259283,8.3675747],[-78.1357141,8.4042027],[-78.1913829,8.3343998],[-78.2018926,8.2820488],[-78.3089293,8.2535053],[-78.2688146,8.1973239],[-78.2451534,8.1858929],[-78.2563572,8.1175104],[-78.3387003,8.0600482],[-78.4463631,8.0702117],[-78.42546,8.01786],[-78.4233466,7.9786388],[-78.3926019,7.9063375],[-78.3437399,7.8702038],[-78.2790404,7.7241024],[-78.2759224,7.6884681],[-78.2051821,7.6190656],[-78.1707563,7.5725657],[-78.1836931,7.5261168],[-78.0697163,7.4145015],[-78.0515901,7.42884],[-78.0214799,7.381],[-78.0224275,7.3413889],[-77.9485676,7.266252],[-77.8890649,7.228372],[-77.8181846,7.4724812],[-77.7433798,7.4656526],[-77.701464,7.506937],[-77.7485918,7.6166212],[-77.7421433,7.6794057],[-77.6907367,7.6925699],[-77.645202,7.651469],[-77.6302013,7.5944261],[-77.5834694,7.513541],[-77.5673382,7.5076451],[-77.4812225,7.6175586],[-77.4404114,7.6584167],[-77.4363944,7.6851854],[-77.3980046,7.7253057],[-77.381963,7.7682267],[-77.3422244,7.7656964],[-77.3617936,7.8102283],[-77.3348151,7.8936402],[-77.2986296,7.9121671],[-77.21393,7.9145348],[-77.1677298,7.9327622],[-77.1696883,7.9758557],[-77.214147,8.0106798],[-77.2305512,8.0676647],[-77.2179686,8.0851588],[-77.239179,8.1447793],[-77.2901017,8.1072394],[-77.3962118,8.0981539],[-77.499454,8.0981539],[-77.5573844,8.1742384],[-77.583195,8.1748061],[-77.6273597,8.2100045],[-77.6313747,8.2310084],[-77.6795544,8.2832297],[-77.743794,8.3110403],[-77.7977094,8.3564412],[-77.8315499,8.4716223],[-77.8854653,8.5028231],[-77.9657648,8.5618139],[-77.8200785,8.6718301],[-77.7587068,8.7018805],[-77.7414997,8.7364638],[-77.7082019,8.7558523],[-77.7070548,8.7870296],[-77.7649851,8.8556104],[-77.8378283,8.8884793],[-77.9232899,8.9972656],[-77.9628661,9.0216248],[-78.0030159,9.0663733],[-78.0574446,9.0822157],[-78.0919498,9.0458684],[-78.1189075,8.9331304],[-78.148733,8.9166983],[-78.1842942,8.8719313],[-78.245666,8.8713646],[-78.3015961,8.8295611],[-78.418604,8.8318281],[-78.4599009,8.8448636],[-78.4553124,8.7507715],[-78.4874322,8.7348982],[-78.5006242,8.6759344],[-78.486285,8.6203638],[-78.4547388,8.6067534],[-78.4547388,8.4825363],[-78.4346639,8.4785652],[-78.4386789,8.4235332],[-78.4140155,8.3951632],[-78.39879148880269,8.346730699084572]],[[-78.3360732,7.9496427],[-78.2849709,7.9938247],[-78.2436023,7.9914149],[-78.2208902,7.9673161],[-78.1389643,7.9841854],[-78.1397754,8.0701278],[-78.0951623,8.0894021],[-78.0546049,8.0741433],[-78.0416266,8.033986],[-78.0367597,7.9600861],[-78.0108029,7.9150971],[-77.9418554,7.9424124],[-77.9272547,7.8797451],[-77.9491557,7.8403723],[-77.9467223,7.7921556],[-77.8769636,7.6973132],[-77.9004869,7.6699818],[-77.9475334,7.6740013],[-77.9661898,7.6916863],[-78.0156698,7.6965094],[-78.04406,7.6788245],[-78.09354,7.7222315],[-78.1365308,7.7109783],[-78.2354908,7.7760821],[-78.2525249,7.8001921],[-78.2663145,7.8660855],[-78.3360732,7.9496427]]]},"properties":{"code":"05"}},
{"type":"Feature","geometry":{"type":"Polygon","coordinates":[[[-80.7003962,8.1547771],[-80.8058454,8.0760807],[-80.8480251,8.0568057],[-80.8236906,8.0021884],[-80.8869602,7.9475638],[-80.891827,7.9202488],[-80.9323844,7.9202488],[-80.9323844,7.8045416],[-80.9550966,7.7852539],[-80.90805,7.7354234],[-80.8172015,7.6035852],[-80.8058454,7.5762478],[-80.7571765,7.5746397],[-80.7068854,7.5312177],[-80.6231946,7.6043765],[-80.626636,7.6441714],[-80.5646907,7.7055618],[-80.5601021,7.7533037],[-80.5773092,7.7748995],[-80.5796034,7.8328616],[-80.5428951,7.8453622],[-80.5210995,7.9146767],[-80.4430942,7.9419449],[-80.3914731,7.9487616],[-80.38240649583625,7.997006590038508],[-80.4440695,8.0218969],[-80.47891307666461,8.099423120628783],[-80.5785074,8.1364467],[-80.6828968,8.1353111],[-80.7003962,8.1547771]]]},"properties":{"code":"06"}},
{"type":"Feature","geometry":{"type":"Polygon","coordinates":[[[-80.7068854,7.5312177],[-80.7036408,7.4266656],[-80.6468604,7.3800113],[-80.650105,7.339788],[-80.6776841,7.3140433],[-80.6338821,7.2641585],[-80.63369590412147,7.231658519388509],[-80.5074999,7.25108],[-80.4373,7.2415799],[-80.39151,7.30597],[-80.3427,7.31957],[-80.3627742,7.3633001],[-80.3136873,7.4097207],[-80.19584,7.43275],[-80.1700501,7.4113101],[-80.0951301,7.42895],[-80.0010757,7.4657123],[-79.9925612,7.5132347],[-80.0326849,7.5963459],[-80.0897081,7.6797107],[-80.1304801,7.7038101],[-80.1269499,7.7241701],[-80.1927375,7.7840366],[-80.2252111,7.8274213],[-80.2862445,7.8657253],[-80.3210988,7.9045449],[-80.3238288,7.9319521],[-80.3621574,8.0004593],[-80.38240649583625,7.997006590038508],[-80.3914731,7.9487616],[-80.4430942,7.9419449],[-80.5210995,7.9146767],[-80.5428951,7.8453622],[-80.5796034,7.8328616],[-80.5773092,7.7748995],[-80.5601021,7.7533037],[-80.5646907,7.7055618],[-80.626636,7.6441714],[-80.6231946,7.6043765],[-80.7068854,7.5312177]]]},"properties":{"code":"07"}},
{"type":"Feature","geometry":{"type":"Polygon","coordinates":[[[-80.1424399,8.9439519],[-80.1793456,8.8296989],[-80.1667271,8.7832208],[-80.1185474,8.7242646],[-80.1047817,8.6324104],[-80.1047817,8.5802363],[-80.0910161,8.5325929],[-80.0910161,8.4770013],[-80.04326052778863,8.406779235447633],[-79.9522801,8.4671401],[-79.9418499,8.4934001],[-79.8756837,8.5303148],[-79.867916,8.5524576],[-79.78833,8.5735],[-79.7823652,8.6109727],[-79.8153993,8.6259425],[-79.7941379,8.6670782],[-79.7551327,8.6907012],[-79.7513388,8.7248903],[-79.7637399,8.8085999],[-79.7396644,8.8501334],[-79.7085447,8.8742857],[-79.5668657,8.899755],[-79.55240906056417,8.926840535420652],[-79.5846589,8.9893925],[-79.6681803,9.0672678],[-79.6981024,9.1151896],[-79.7315771,9.1011116],[-79.7948466,9.0995098],[-79.8208033,9.1723878],[-79.901107,9.1860007],[-79.9388233,9.1637235],[-79.940544,9.1189871],[-79.9675017,9.0804753],[-79.9520153,9.036295],[-79.9652074,8.9756798],[-79.9858559,8.9609493],[-80.0604197,8.9649153],[-80.1040109,8.9819117],[-80.1424399,8.9439519]]]},"properties":{"code":"13"}},
{"type":"Feature","geometry":{"type":"MultiPolygon","coordinates":[[[[-79.1016625,8.309877816872257],[-79.1395753,8.2500446],[-79.1170188,8.2083667],[-79.0797722,8.256306],[-79.1016625,8.309877816872257]]],[[[-78.97050626721075,8.4376],[-78.94172,8.2851],[-78.8591767,8.3076556],[-78.8377621,8.3416878],[-78.8381758,8.4059293],[-78.8686791,8.4076976],[-78.8615953,8.4503243],[-78.8896931,8.4753979],[-78.97050626721075,8.4376]]],[[[-79.6981024,9.1151896],[-79.6681803,9.0672678],[-79.5846589,8.9893925],[-79.55240906056417,8.926840535420652],[-79.5258003,8.9739641],[-79.4916869,9.0049674],[-79.349142,9.0238372],[-79.2819648,9.0240331],[-79.1670874,9.0137334],[-79.0792665,8.9907333],[-78.9509136,8.9351848],[-78.9138484,8.9266544],[-78.8840049,8.8927742],[-78.8472225,8.8172059],[-78.7814795,8.8346051],[-78.7412416,8.7636265],[-78.648027,8.7320019],[-78.6184208,8.6716563],[-78.5237688,8.643244],[-78.5193984,8.6186872],[-78.5421011,8.5767463],[-78.4990671,8.5226732],[-78.5081616,8.4654451],[-78.451449,8.4176894],[-78.4489415,8.385956],[-78.39879148880269,8.346730699084572],[-78.4140155,8.3951632],[-78.4386789,8.4235332],[-78.4346639,8.4785652],[-78.4547388,8.4825363],[-78.4547388,8.6067534],[-78.486285,8.6203638],[-78.5006242,8.6759344],[-78.4874322,8.7348982],[-78.4553124,8.7507715],[-78.4599009,8.8448636],[-78.418604,8.8318281],[-78.3015961,8.8295611],[-78.245666,8.8713646],[-78.1842942,8.8719313],[-78.148733,8.9166983],[-78.1189075,8.9331304],[-78.0919498,9.0458684],[-78.0574446,9.0822157],[-78.0804476,9.1111163],[-78.1750863,9.1496247],[-78.1905726,9.1666124],[-78.3190518,9.180202],[-78.3557602,9.238518],[-78.413117,9.2198353],[-78.5123443,9.321163],[-78.5438905,9.3041827],[-78.6018209,9.3092769],[-78.6299417,9.2987354],[-78.6855053,9.3351557],[-78.7804096,9.3627686],[-78.8282673,9.3511635],[-78.9122211,9.3119432],[-78.9783296,9.2979349],[-78.9900913,9.2819247],[-79.0894569,9.2811242],[-79.1247418,9.3095418],[-79.1786831,9.2959337],[-79.2748041,9.2955334],[-79.2343436,9.3285045],[-79.2465108,9.3621206],[-79.2911239,9.4197405],[-79.3235698,9.4253419],[-79.3389816,9.3989344],[-79.4054957,9.4197405],[-79.4087403,9.4581484],[-79.4346971,9.4805511],[-79.5271679,9.4669496],[-79.5344682,9.4101378],[-79.5863817,9.2732712],[-79.571781,9.2012146],[-79.6115272,9.2004139],[-79.6723633,9.1555711],[-79.6981024,9.1151896]]]]},"properties":{"code":"08"}},
{"type":"Feature","geometry":{"type":"MultiPolygon","coordinates":[[[[-81.6660403,7.3856244],[-81.6894372,7.3884332],[-81.7281969,7.4401935],[-81.70858,7.5411899],[-81.7463108,7.6390193],[-81.78376,7.6212645],[-81.8397399,7.57678],[-81.8584901,7.52133],[-81.8804299,7.5099399],[-81.85833,7.4398701],[-81.81179,7.4064499],[-81.7771,7.36088],[-81.6910801,7.3396299],[-81.64199,7.3172699],[-81.6005073,7.3361381],[-81.632136,7.394644],[-81.6660403,7.3856244]]],[[[-81.09232,7.53544],[-81.05719,7.54511],[-81.04918,7.5781099],[-81.09543,7.5827401],[-81.13961,7.5690601],[-81.1703399,7.53322],[-81.2302599,7.51876],[-81.20932,7.4893799],[-81.12513,7.5480601],[-81.09232,7.53544]]],[[[-80.88374208378232,8.887134817309459],[-80.94256,8.86566],[-80.99438,8.83486],[-81.0698201,8.81075],[-81.11438,8.80829],[-81.20093,8.7862201],[-81.23572476774858,8.795909771576659],[-81.2219077,8.7341035],[-81.2219077,8.6303434],[-81.2098628,8.5787362],[-81.1800372,8.5305253],[-81.2815588,8.5169117],[-81.3194142,8.5787362],[-81.402008,8.5611541],[-81.4925206,8.5660223],[-81.5263611,8.493134],[-81.521199,8.4066144],[-81.5298025,8.351856],[-81.5140294,8.2871573],[-81.530136,8.261298],[-81.557267,8.2335],[-81.555526,8.205209],[-81.611816,8.1586],[-81.631364,8.037909],[-81.67286775577334,8.006764213612984],[-81.59373,7.8960699],[-81.5762,7.83887],[-81.58919,7.79683],[-81.5428079,7.7674602],[-81.5004525,7.7587658],[-81.50771,7.7053801],[-81.45055,7.7088399],[-81.4034799,7.67331],[-81.3185844,7.6554989],[-81.2961548,7.6592029],[-81.22928,7.6082101],[-81.20332,7.6314301],[-81.1952101,7.6963999],[-81.2161467,7.7314229],[-81.1786899,7.7518301],[-81.1709228,7.8104594],[-81.1990257,7.8511737],[-81.1903275,7.8781597],[-81.139172,7.8449522],[-81.095629,7.854031],[-81.0617076,7.8252361],[-81.0902267,7.7736855],[-81.0623281,7.7493413],[-81.0316493,7.6958515],[-81.0352401,7.65016],[-80.9802001,7.62271],[-80.9817501,7.5892001],[-80.9496981,7.5539621],[-80.9729701,7.49922],[-80.93823,7.4804],[-80.9045299,7.42651],[-80.92804,7.4051199],[-80.88312,7.33602],[-80.9209501,7.31334],[-80.94045,7.2574],[-80.8976001,7.2393399],[-80.8702401,7.20479],[-80.7783399,7.21726],[-80.7132899,7.2083299],[-80.63369590412147,7.231658519388509],[-80.6338821,7.2641585],[-80.6776841,7.3140433],[-80.650105,7.339788],[-80.6468604,7.3800113],[-80.7036408,7.4266656],[-80.7068854,7.5312177],[-80.7571765,7.5746397],[-80.8058454,7.5762478],[-80.8172015,7.6035852],[-80.90805,7.7354234],[-80.9550966,7.7852539],[-80.9323844,7.8045416],[-80.9323844,7.9202488],[-80.891827,7.9202488],[-80.8869602,7.9475638],[-80.8236906,8.0021884],[-80.8480251,8.0568057],[-80.8058454,8.0760807],[-80.7003962,8.1547771],[-80.737709,8.1917109],[-80.7149969,8.2286412],[-80.6971516,8.2976757],[-80.7085077,8.3618829],[-80.7409536,8.382748],[-80.7409536,8.4196604],[-80.7863778,8.504706],[-80.8447805,8.5496281],[-80.852892,8.6330409],[-80.8074677,8.5977531],[-80.7312198,8.6266252],[-80.7490651,8.7180388],[-80.7344644,8.7404878],[-80.7896224,8.8078268],[-80.8172015,8.8014141],[-80.8382913,8.8318735],[-80.864248,8.8254612],[-80.88374208378232,8.887134817309459]]]]},"properties":{"code":"09"}},
{"type":"Feature","geometry":{"type":"MultiPolygon","coordinates":[[[[-82.3821471,8.2262236],[-82.3426489,8.2323887],[-82.3581032,8.2795869],[-82.4327737,8.2536532],[-82.3821471,8.2262236]]],[[[-82.7118974,8.9222593],[-82.7510444,8.8926538],[-82.8552429,8.8561842],[-82.8843438,8.8292695],[-82.8664043,8.8052681],[-82.9163028,8.7410614],[-82.8300065,8.6359948],[-82.8396915,8.5460951],[-82.8317853,8.5057773],[-82.8683826,8.4396725],[-82.9355404,8.4239399],[-83.0037587,8.3592519],[-83.0517245,8.3334255],[-83.0444028,8.3152221],[-82.9417547,8.2727821],[-82.9322811,8.2205049],[-82.9104051,8.1951734],[-82.907224,8.1421001],[-82.8752816,8.0300036],[-82.8521043,8.0721279],[-82.8735244,8.1199123],[-82.8776949,8.2186437],[-82.8717925,8.2504655],[-82.8426679,8.2900872],[-82.7044406,8.3304421],[-82.6662354,8.3284612],[-82.5522699,8.29589],[-82.4823576,8.2683736],[-82.4548353,8.2954543],[-82.4191554,8.2862962],[-82.3533716,8.2921591],[-82.3273766,8.3299698],[-82.2694448,8.2901267],[-82.2361387,8.333702],[-82.1907723,8.2687389],[-82.2221523,8.2308001],[-82.1964801,8.2020099],[-82.16031,8.2206801],[-82.11786,8.21229],[-82.0441495,8.2191435],[-81.9544327,8.1889536],[-81.91082,8.1836899],[-81.81685,8.15424],[-81.7678584,8.1278765],[-81.7471048,8.1716874],[-81.6981658,8.1020416],[-81.7217501,8.0656199],[-81.67286775577334,8.006764213612984],[-81.631364,8.037909],[-81.611816,8.1586],[-81.555526,8.205209],[-81.557267,8.2335],[-81.530136,8.261298],[-81.557793,8.28156],[-81.542382,8.31221],[-81.582169,8.342679],[-81.618332,8.32185],[-81.664849,8.272999],[-81.706079,8.29464],[-81.728868,8.26618],[-81.768142,8.26028],[-81.828003,8.295779],[-81.827896,8.33081],[-81.974807,8.319058],[-82.01953,8.359039],[-82.058036,8.453739],[-82.092408,8.45897],[-82.171082,8.44287],[-82.177566,8.483359],[-82.144958,8.543911],[-82.157951,8.584601],[-82.1576235,8.7677932],[-82.225429,8.7873423],[-82.3072045,8.7842773],[-82.359103,8.82376],[-82.4118971,8.8299394],[-82.5935964,8.9130508],[-82.6928077,8.9013328],[-82.7118974,8.9222593]]]]},"properties":{"code":"04"}},
{"type":"Feature","geometry":{"type":"Polygon","coordinates":[[[-80.7312198,8.6266252],[-80.8074677,8.5977531],[-80.852892,8.6330409],[-80.8447805,8.5496281],[-80.7863778,8.504706],[-80.7409536,8.4196604],[-80.7409536,8.382748],[-80.7085077,8.3618829],[-80.6971516,8.2976757],[-80.7149969,8.2286412],[-80.737709,8.1917109],[-80.7003962,8.1547771],[-80.6828968,8.1353111],[-80.5785074,8.1364467],[-80.47891307666461,8.099423120628783],[-80.4874999,8.180403],[-80.4748159,8.223318],[-80.4074963,8.290737],[-80.2946288,8.3055896],[-80.2466303,8.2994821],[-80.1827301,8.32669],[-80.04326052778863,8.406779235447633],[-80.0910161,8.4770013],[-80.0910161,8.5325929],[-80.1047817,8.5802363],[-80.1047817,8.6324104],[-80.1185474,8.7242646],[-80.1667271,8.7832208],[-80.1793456,8.8296989],[-80.1424399,8.9439519],[-80.206106,9.0062719],[-80.2066795,8.9677481],[-80.2387993,8.9377193],[-80.2709191,8.9365861],[-80.2995975,8.9014549],[-80.3540865,8.8657536],[-80.4395481,8.8810546],[-80.4607702,8.9065548],[-80.5588503,8.9229873],[-80.552541,8.7682657],[-80.6489005,8.7869718],[-80.6953595,8.7472911],[-80.7010952,8.7195122],[-80.6821674,8.648071],[-80.7312198,8.6266252]]]},"properties":{"code":"02"}}
]}